STARLINK-32423          
1 61218U 24171U   26200.95626682 -.00000731  00000+0 -11812-4 0  9996
2 61218  53.1612  67.7611 0001057  95.0905 265.0217 15.31699556103532
STARLINK-32248          
1 61219U 24171V   26201.01217700 -.00002852  00000+0 -80106-4 0  9990
2 61219  53.1604  67.3900 0001449  99.0793 261.0373 15.31719642103544
STARLINK-11300 [DTC]    
1 61243U 24175A   26201.04226036 -.00000061  00000+0  43548-5 0  9995
2 61243  53.1598 123.8388 0001117 107.6957 252.4183 15.69710981104150
STARLINK-11276 [DTC]    
1 61244U 24175B   26201.03735720 -.00000196  00000+0  32361-5 0  9990
2 61244  53.1600 123.8078 0001028  94.8960 265.2175 15.69707759104155
STARLINK-11280 [DTC]    
1 61245U 24175C   26201.09121810 -.00000651  00000+0 -51567-6 0  9993
2 61245  53.1603 123.4362 0000986  77.2805 282.8323 15.69706387104163
STARLINK-11308 [DTC]    
1 61246U 24175D   26201.15979033 -.00000655  00000+0 -55108-6 0  9998
2 61246  53.1592 123.1476 0000916  91.3459 268.7664 15.69708979104170
STARLINK-11305 [DTC]    
1 61247U 24175E   26201.08630976 -.00000403  00000+0  15271-5 0  9997
2 61247  53.1590 123.3960 0000981  93.6068 266.5062 15.69707412104160
STARLINK-11317 [DTC]    
1 61248U 24175F   26201.20874298  .00001641  00000+0  18401-4 0  9990
2 61248  53.1594 122.7328 0001074  88.4630 271.6511 15.69711450104182
STARLINK-11293 [DTC]    
1 61249U 24175G   26201.07650382 -.00000593  00000+0 -30040-7 0  9995
2 61249  53.1599 123.3312 0001337 105.2915 254.8251 15.69702454104160
STARLINK-11319 [DTC]    
1 61251U 24175J   26201.06678937 -.00000063  00000+0  43402-5 0  9998
2 61251  53.1603 123.9964 0001205  86.5735 273.5421 15.69708108104151
STARLINK-11318 [DTC]    
1 61252U 24175K   26201.06188384 -.00000025  00000+0  46506-5 0  9997
2 61252  53.1590 123.9670 0001005  80.1233 279.9898 15.69708669105322
STARLINK-11311 [DTC]    
1 61253U 24175L   26201.05698004  .00000452  00000+0  85874-5 0  9996
2 61253  53.1596 123.9311 0001012  85.7146 274.3988 15.69706692105360
STARLINK-11306 [DTC]    
1 61254U 24175M   26201.17941071 -.00000208  00000+0  31414-5 0  9996
2 61254  53.1587 123.2703 0001013  76.7458 283.3673 15.69708680105377
STARLINK-11313 [DTC]    
1 61255U 24175N   26201.04716634 -.00000257  00000+0  27344-5 0  9999
2 61255  53.1584 123.8648 0001008  73.7757 286.3372 15.69710389104155
STARLINK-32431          
1 61256U 24175P   26201.00819480  .00003022  00000+0  10055-3 0  9990
2 61256  53.1591 297.9164 0000920  72.6530 287.4573 15.34396860101731
STARLINK-32432          
1 61257U 24175Q   26201.26242594  .00000136  00000+0  15159-4 0  9999
2 61257  53.1606 296.6595 0001122  74.9205 285.1922 15.34390341101777
STARLINK-32382          
1 61258U 24175R   26201.24980468  .00000627  00000+0  29697-4 0  9994
2 61258  53.1588 296.5796 0001301  91.5862 268.5289 15.34387240101777
STARLINK-32435          
1 61259U 24175S   26201.23507507  .00000920  00000+0  38382-4 0  9990
2 61259  53.1557 296.4910 0001428  94.6225 265.4941 15.34394162101770
STARLINK-32474          
1 61260U 24175T   26201.28136096 -.00000161  00000+0  63647-5 0  9999
2 61260  53.1581 296.7721 0001116  78.5541 281.5587 15.34399650101770
STARLINK-32447          
1 61261U 24175U   26200.68881996  .00000541  00000+0  27128-4 0  9993
2 61261  53.1598 299.4725 0000964 100.0752 260.0360 15.34397194101680
STARLINK-32446          
1 61262U 24175V   26200.97663889  .00000247  00000+0  18451-4 0  9997
2 61262  53.1582 297.7197 0001299  78.2625 281.8523 15.34392278101731
STARLINK-32174          
1 61509U 24183A   26201.08122365  .00000676  00000+0  31159-4 0  9998
2 61509  53.1590 233.1983 0001257  94.9687 265.1459 15.34387769100122
STARLINK-32139          
1 61510U 24183B   26200.42753698  .00000508  00000+0  28145-4 0  9991
2 61510  53.1593 249.7295 0001269  92.6615 267.4532 15.31707490 99831
STARLINK-32140          
1 61511U 24183C   26200.40886591  .00000405  00000+0  24794-4 0  9991
2 61511  53.1578 249.6136 0000923  75.6946 284.4158 15.31701849 99837
STARLINK-32201          
1 61512U 24183D   26201.08963726  .00000412  00000+0  23342-4 0  9999
2 61512  53.1588 233.2516 0001103  87.2471 272.8657 15.34385829100111
STARLINK-32030          
1 61513U 24183E   26200.86963237  .00002452  00000+0  83688-4 0  9997
2 61513  53.1593 248.2182 0001181  84.4290 275.6847 15.34392037 99890
STARLINK-31837          
1 61514U 24183F   26200.40946981 -.00000787  00000+0 -12165-4 0  9998
2 61514  53.1594 250.3124 0001001  86.5307 273.5810 15.34388896 99823
STARLINK-32136          
1 61515U 24183G   26201.15929789  .00000112  00000+0  15389-4 0  9990
2 61515  53.1598 246.4754 0001237  86.2142 273.9001 15.31703008 99940
STARLINK-32047          
1 61516U 24183H   26200.48345103  .00000356  00000+0  23238-4 0  9990
2 61516  53.1582 249.3545 0001083  84.3328 275.7797 15.31699491 99849
STARLINK-31756          
1 61517U 24183J   26200.41156695  .00001496  00000+0  55409-4 0  9991
2 61517  53.1597 250.2784 0001026  75.1369 284.9747 15.34391918 99823
