OBJECT_NAME,OBJECT_ID,EPOCH,MEAN_MOTION,ECCENTRICITY,INCLINATION,RA_OF_ASC_NODE,ARG_OF_PERICENTER,MEAN_ANOMALY,EPHEMERIS_TYPE,CLASSIFICATION_TYPE,NORAD_CAT_ID,ELEMENT_SET_NO,REV_AT_EPOCH,BSTAR,MEAN_MOTION_DOT,MEAN_MOTION_DDOT
STARLINK-32423,2024-171U,2026-07-19T22:57:01.453248,15.31699556,.00010578,53.1612,67.7611,95.0905,265.0217,0,U,61218,999,10353,-.11812304E-4,-.731E-5,0
STARLINK-32248,2024-171V,2026-07-20T00:17:32.092800,15.31719642,.00014493,53.1604,67.3900,99.0793,261.0373,0,U,61219,999,10354,-.80106473E-4,-.2852E-4,0
STARLINK-11300 [DTC],2024-175A,2026-07-20T01:00:51.295104,15.69710981,.00011171,53.1598,123.8388,107.6957,252.4183,0,U,61243,999,10415,.4354819E-5,-.61E-6,0
STARLINK-11276 [DTC],2024-175B,2026-07-20T00:53:47.662080,15.69707759,.00010289,53.1600,123.8078,94.8960,265.2175,0,U,61244,999,10415,.323607E-5,-.196E-5,0
STARLINK-11280 [DTC],2024-175C,2026-07-20T02:11:21.243840,15.69706387,.00009865,53.1603,123.4362,77.2805,282.8323,0,U,61245,999,10416,-.515669E-6,-.651E-5,0
STARLINK-11308 [DTC],2024-175D,2026-07-20T03:50:05.884512,15.69708979,.00009164,53.1592,123.1476,91.3459,268.7664,0,U,61246,999,10417,-.551085E-6,-.655E-5,0
STARLINK-11305 [DTC],2024-175E,2026-07-20T02:04:17.163264,15.69707412,.00009818,53.1590,123.3960,93.6068,266.5062,0,U,61247,999,10416,.1527096E-5,-.403E-5,0
STARLINK-11317 [DTC],2024-175F,2026-07-20T05:00:35.393472,15.69711450,.00010741,53.1594,122.7328,88.4630,271.6511,0,U,61248,999,10418,.18400578E-4,.1641E-4,0
STARLINK-11293 [DTC],2024-175G,2026-07-20T01:50:09.930048,15.69702454,.00013378,53.1599,123.3312,105.2915,254.8251,0,U,61249,999,10416,-.3004E-7,-.593E-5,0
STARLINK-11319 [DTC],2024-175J,2026-07-20T01:36:10.601568,15.69708108,.00012056,53.1603,123.9964,86.5735,273.5421,0,U,61251,999,10415,.4340171E-5,-.63E-6,0
STARLINK-11318 [DTC],2024-175K,2026-07-20T01:29:06.763776,15.69708669,.00010059,53.1590,123.9670,80.1233,279.9898,0,U,61252,999,10532,.4650574E-5,-.25E-6,0
STARLINK-11311 [DTC],2024-175L,2026-07-20T01:22:03.075456,15.69706692,.00010127,53.1596,123.9311,85.7146,274.3988,0,U,61253,999,10536,.85874E-5,.452E-5,0
STARLINK-11306 [DTC],2024-175M,2026-07-20T04:18:21.085344,15.69708680,.00010138,53.1587,123.2703,76.7458,283.3673,0,U,61254,999,10537,.314145E-5,-.208E-5,0
STARLINK-11313 [DTC],2024-175N,2026-07-20T01:07:55.171776,15.69710389,.00010089,53.1584,123.8648,73.7757,286.3372,0,U,61255,999,10415,.2734385E-5,-.257E-5,0
STARLINK-32431,2024-175P,2026-07-20T00:11:48.030720,15.34396860,.00009209,53.1591,297.9164,72.6530,287.4573,0,U,61256,999,10173,.10055383E-3,.3022E-4,0
STARLINK-32432,2024-175Q,2026-07-20T06:17:53.601216,15.34390341,.00011225,53.1606,296.6595,74.9205,285.1922,0,U,61257,999,10177,.15158817E-4,.136E-5,0
STARLINK-32382,2024-175R,2026-07-20T05:59:43.124352,15.34387240,.00013012,53.1588,296.5796,91.5862,268.5289,0,U,61258,999,10177,.29696952E-4,.627E-5,0
STARLINK-32435,2024-175S,2026-07-20T05:38:30.486048,15.34394162,.00014287,53.1557,296.4910,94.6225,265.4941,0,U,61259,999,10177,.38381745E-4,.92E-5,0
STARLINK-32474,2024-175T,2026-07-20T06:45:09.586944,15.34399650,.00011165,53.1581,296.7721,78.5541,281.5587,0,U,61260,999,10177,.6364711E-5,-.161E-5,0
STARLINK-32447,2024-175U,2026-07-19T16:31:54.044544,15.34397194,.00009648,53.1598,299.4725,100.0752,260.0360,0,U,61261,999,10168,.27128481E-4,.541E-5,0
STARLINK-32446,2024-175V,2026-07-19T23:26:21.600096,15.34392278,.00012997,53.1582,297.7197,78.2625,281.8523,0,U,61262,999,10173,.18451381E-4,.247E-5,0
STARLINK-32174,2024-183A,2026-07-20T01:56:57.723360,15.34387769,.00012578,53.1590,233.1983,94.9687,265.1459,0,U,61509,999,10012,.31159264E-4,.676E-5,0
STARLINK-32139,2024-183B,2026-07-19T10:15:39.195072,15.31707490,.00012693,53.1593,249.7295,92.6615,267.4532,0,U,61510,999,9983,.28144554E-4,.508E-5,0
STARLINK-32140,2024-183C,2026-07-19T09:48:46.014624,15.31701849,.00009231,53.1578,249.6136,75.6946,284.4158,0,U,61511,999,9983,.2479391E-4,.405E-5,0
STARLINK-32201,2024-183D,2026-07-20T02:09:04.659264,15.34385829,.00011039,53.1588,233.2516,87.2471,272.8657,0,U,61512,999,10011,.2334151E-4,.412E-5,0
STARLINK-32030,2024-183E,2026-07-19T20:52:16.236768,15.34392037,.0001181,53.1593,248.2182,84.4290,275.6847,0,U,61513,999,9989,.83688253E-4,.2452E-4,0
STARLINK-31837,2024-183F,2026-07-19T09:49:38.191584,15.34388896,.00010013,53.1594,250.3124,86.5307,273.5810,0,U,61514,999,9982,-.12164652E-4,-.787E-5,0
STARLINK-32136,2024-183G,2026-07-20T03:49:23.337696,15.31703008,.0001237,53.1598,246.4754,86.2142,273.9001,0,U,61515,999,9994,.1538909E-4,.112E-5,0
STARLINK-32047,2024-183H,2026-07-19T11:36:10.168992,15.31699491,.00010831,53.1582,249.3545,84.3328,275.7797,0,U,61516,999,9984,.23238449E-4,.356E-5,0
STARLINK-31756,2024-183J,2026-07-19T09:52:39.384480,15.34391918,.00010261,53.1597,250.2784,75.1369,284.9747,0,U,61517,999,9982,.55409287E-4,.1496E-4,0
